OBJECT_NAME,OBJECT_ID,EPOCH,MEAN_MOTION,ECCENTRICITY,INCLINATION,RA_OF_ASC_NODE,ARG_OF_PERICENTER,MEAN_ANOMALY,EPHEMERIS_TYPE,CLASSIFICATION_TYPE,NORAD_CAT_ID,ELEMENT_SET_NO,REV_AT_EPOCH,BSTAR,MEAN_MOTION_DOT,MEAN_MOTION_DDOT
STARLINK-37499,2026-117N,2026-06-14T06:05:29.299776,15.82039537,.00011721,53.1592,258.0814,49.9180,310.1946,0,U,69250,999,251,.83146949E-3,.176078E-2,0
STARLINK-37489,2026-117P,2026-06-14T06:02:57.316128,15.82039685,.00012677,53.1593,258.0696,55.8989,304.2154,0,U,69251,999,251,.92648843E-3,.196756E-2,0
STARLINK-37434,2026-117Q,2026-06-14T05:58:40.539648,15.82040375,.00012748,53.1590,258.0493,67.0569,293.0589,0,U,69252,999,251,.80797226E-3,.170987E-2,0
STARLINK-37368,2026-117R,2026-06-14T05:48:57.964320,15.82030421,.00014865,53.1587,258.0032,55.7751,304.3413,0,U,69253,999,251,.70348972E-3,.148324E-2,0
STARLINK-37517,2026-117S,2026-06-14T05:47:03.954336,15.82046787,.00011915,53.1586,257.9941,56.6600,303.4537,0,U,69254,999,251,.8280699E-3,.1754E-2,0
STARLINK-37378,2026-117T,2026-06-14T05:46:35.289408,15.82043290,.00008929,53.1585,257.9919,52.1675,307.9429,0,U,69255,999,251,.87132726E-3,.184772E-2,0
STARLINK-37396,2026-117U,2026-06-14T05:43:03.471168,15.82040506,.00008472,53.1581,257.9743,63.3103,296.8007,0,U,69256,999,251,.86268812E-3,.182869E-2,0
STARLINK-37508,2026-117V,2026-06-14T05:43:09.622848,15.80930771,.00013707,53.1586,257.9737,47.3098,312.8040,0,U,69257,999,251,.77693398E-3,.155856E-2,0
STARLINK-37276,2026-117W,2026-06-14T06:00:02.000160,15.80854829,.00011926,53.1585,257.5955,97.0389,123.2760,0,U,69258,999,369,.21083219E-3,.41076E-3,0
STARLINK-37518,2026-117X,2026-06-14T06:00:02.000160,15.80844757,.00013796,53.1585,257.6109,111.9784,101.3334,0,U,69259,999,370,.40394648E-3,.79662E-3,0
STARLINK-37478,2026-117Y,2026-06-14T06:00:02.000160,15.80849246,.00012339,53.1588,257.6136,107.1538,104.8766,0,U,69260,999,370,.29455289E-3,.57762E-3,0
STARLINK-37506,2026-117Z,2026-06-14T06:00:02.000160,15.80850519,.00012061,53.1583,257.6071,80.9984,133.8143,0,U,69261,999,370,.27852516E-3,.54564E-3,0
STARLINK-37503,2026-117AA,2026-06-14T06:00:02.000160,15.80854521,.00015856,53.1587,257.6038,128.3761,87.8982,0,U,69262,999,370,.2877592E-3,.5642E-3,0
STARLINK-37502,2026-117AB,2026-06-14T06:00:02.000160,15.80855847,.00010348,53.1586,257.5973,100.9052,118.2968,0,U,69263,999,370,.22726324E-3,.4435E-3,0
STARLINK-37486,2026-117AC,2026-06-14T06:00:02.000160,15.80830985,.00010738,53.1582,257.5828,89.3100,136.8467,0,U,69264,999,370,.51995294E-3,.102953E-2,0
STARLINK-37435,2026-117AD,2026-06-14T06:00:02.000160,15.80832033,.0001218,53.1582,257.5999,109.9191,107.7597,0,U,69265,999,370,.55436102E-3,.109907E-2,0
STARLINK-37464,2026-117AE,2026-06-14T06:00:02.000160,15.81970590,.00013401,53.1579,257.5710,112.8155,118.4277,0,U,69266,999,370,.22194921E-3,.45624E-3,0
KUIPER-00282,2026-118A,2026-06-14T05:25:50.823552,15.34737794,.00116833,51.8585,67.8279,169.2743,190.8493,0,U,69267,999,352,-.81719414E-4,-.3185E-4,0
KUIPER-00383,2026-118B,2026-06-14T05:21:34.740000,15.34653080,.00109035,51.8587,67.8089,169.6971,190.4240,0,U,69268,999,352,.61742433E-3,.20762E-3,0
KUIPER-00527,2026-118C,2026-06-14T05:16:05.869632,15.35048593,.00102214,51.8614,67.7871,165.7468,194.3808,0,U,69269,999,352,.6603864E-3,.22519E-3,0
KUIPER-00562,2026-118D,2026-06-14T04:38:33.185760,15.38557597,.00018708,51.8728,67.6129,106.9330,253.1863,0,U,69270,999,352,.60383479E-3,.23024E-3,0
KUIPER-00570,2026-118E,2026-06-14T05:18:56.017152,15.35149874,.00125945,51.8575,67.7961,173.6021,186.5127,0,U,69271,999,352,-.3599992E-3,-.12871E-3,0
KUIPER-00572,2026-118F,2026-06-14T05:01:46.696800,15.36944368,.00074108,51.8677,67.7254,160.1683,199.9592,0,U,69272,999,352,.71499307E-3,.25955E-3,0
KUIPER-00581,2026-118G,2026-06-14T05:06:24.846048,15.36571882,.00091711,51.8657,67.7449,163.5776,196.5509,0,U,69273,999,361,.61331872E-3,.21937E-3,0
KUIPER-00584,2026-118H,2026-06-14T05:21:55.031040,15.35211781,.00114974,51.8602,67.8100,179.4937,180.6062,0,U,69274,999,352,.10702667E-3,.3335E-4,0
KUIPER-00587,2026-118J,2026-06-14T05:05:36.741984,15.36621669,.00083705,51.8631,67.7412,166.7510,193.3698,0,U,69275,999,352,.67438849E-3,.24202E-3,0
KUIPER-00590,2026-118K,2026-06-14T04:49:08.717376,15.37850144,.00043449,51.8693,67.6674,149.3430,210.7812,0,U,69276,999,352,.61211142E-3,.22811E-3,0
KUIPER-00592,2026-118L,2026-06-14T04:46:02.450208,15.38091233,.00035415,51.8717,67.6535,126.7830,233.3483,0,U,69277,999,352,.65432906E-3,.24609E-3,0
KUIPER-00593,2026-118M,2026-06-14T04:46:55.696800,15.37983079,.00039381,51.8721,67.6558,144.4871,215.6379,0,U,69278,999,358,.59107601E-3,.22106E-3,0
KUIPER-00594,2026-118N,2026-06-14T04:36:58.087008,15.38596484,.00010417,51.8724,67.6092,85.2614,274.8492,0,U,69279,999,352,.76776462E-3,.29445E-3,0
