STARLINK-37499          
1 69250U 26117N   26165.25381134  .00176078  00000+0  83147-3 0  9990
2 69250  53.1592 258.0814 0001172  49.9180 310.1946 15.82039537  2514
STARLINK-37489          
1 69251U 26117P   26165.25205227  .00196756  00000+0  92649-3 0  9991
2 69251  53.1593 258.0696 0001267  55.8989 304.2154 15.82039685  2511
STARLINK-37434          
1 69252U 26117Q   26165.24908032  .00170987  00000+0  80797-3 0  9994
2 69252  53.1590 258.0493 0001274  67.0569 293.0589 15.82040375  2516
STARLINK-37368          
1 69253U 26117R   26165.24233755  .00148324  00000+0  70349-3 0  9990
2 69253  53.1587 258.0032 0001486  55.7751 304.3413 15.82030421  2517
STARLINK-37517          
1 69254U 26117S   26165.24101799  .00175400  00000+0  82807-3 0  9990
2 69254  53.1586 257.9941 0001191  56.6600 303.4537 15.82046787  2519
STARLINK-37378          
1 69255U 26117T   26165.24068622  .00184772  00000+0  87133-3 0  9997
2 69255  53.1585 257.9919 0000892  52.1675 307.9429 15.82043290  2519
STARLINK-37396          
1 69256U 26117U   26165.23823462  .00182869  00000+0  86269-3 0  9992
2 69256  53.1581 257.9743 0000847  63.3103 296.8007 15.82040506  2516
STARLINK-37508          
1 69257U 26117V   26165.23830582  .00155856  00000+0  77693-3 0  9991
2 69257  53.1586 257.9737 0001370  47.3098 312.8040 15.80930771  2518
STARLINK-37276          
1 69258U 26117W   26165.25002315  .00041076  00000+0  21083-3 0  9999
2 69258  53.1585 257.5955 0001192  97.0389 123.2760 15.80854829  3695
STARLINK-37518          
1 69259U 26117X   26165.25002315  .00079662  00000+0  40395-3 0  9999
2 69259  53.1585 257.6109 0001379 111.9784 101.3334 15.80844757  3705
STARLINK-37478          
1 69260U 26117Y   26165.25002315  .00057762  00000+0  29455-3 0  9992
2 69260  53.1588 257.6136 0001233 107.1538 104.8766 15.80849246  3708
STARLINK-37506          
1 69261U 26117Z   26165.25002315  .00054564  00000+0  27853-3 0  9990
2 69261  53.1583 257.6071 0001206  80.9984 133.8143 15.80850519  3701
STARLINK-37503          
1 69262U 26117AA  26165.25002315  .00056420  00000+0  28776-3 0  9999
2 69262  53.1587 257.6038 0001585 128.3761  87.8982 15.80854521  3705
STARLINK-37502          
1 69263U 26117AB  26165.25002315  .00044350  00000+0  22726-3 0  9998
2 69263  53.1586 257.5973 0001034 100.9052 118.2968 15.80855847  3705
STARLINK-37486          
1 69264U 26117AC  26165.25002315  .00102953  00000+0  51995-3 0  9993
2 69264  53.1582 257.5828 0001073  89.3100 136.8467 15.80830985  3704
STARLINK-37435          
1 69265U 26117AD  26165.25002315  .00109907  00000+0  55436-3 0  9994
2 69265  53.1582 257.5999 0001218 109.9191 107.7597 15.80832033  3701
STARLINK-37464          
1 69266U 26117AE  26165.25002315  .00045624  00000+0  22195-3 0  9996
2 69266  53.1579 257.5710 0001340 112.8155 118.4277 15.81970590  3704
KUIPER-00282            
1 69267U 26118A   26165.22628268 -.00003185  00000+0 -81719-4 0  9992
2 69267  51.8585  67.8279 0011683 169.2743 190.8493 15.34737794  3528
KUIPER-00383            
1 69268U 26118B   26165.22331875  .00020762  00000+0  61742-3 0  9999
2 69268  51.8587  67.8089 0010903 169.6971 190.4240 15.34653080  3522
KUIPER-00527            
1 69269U 26118C   26165.21951238  .00022519  00000+0  66039-3 0  9996
2 69269  51.8614  67.7871 0010221 165.7468 194.3808 15.35048593  3524
KUIPER-00562            
1 69270U 26118D   26165.19343965  .00023024  00000+0  60383-3 0  9995
2 69270  51.8728  67.6129 0001870 106.9330 253.1863 15.38557597  3529
KUIPER-00570            
1 69271U 26118E   26165.22148168 -.00012871  00000+0 -36000-3 0  9997
2 69271  51.8575  67.7961 0012594 173.6021 186.5127 15.35149874  3522
KUIPER-00572            
1 69272U 26118F   26165.20956825  .00025955  00000+0  71499-3 0  9999
2 69272  51.8677  67.7254 0007410 160.1683 199.9592 15.36944368  3523
KUIPER-00581            
1 69273U 26118G   26165.21278757  .00021937  00000+0  61332-3 0  9993
2 69273  51.8657  67.7449 0009171 163.5776 196.5509 15.36571882  3612
KUIPER-00584            
1 69274U 26118H   26165.22355360  .00003335  00000+0  10703-3 0  9999
2 69274  51.8602  67.8100 0011497 179.4937 180.6062 15.35211781  3523
KUIPER-00587            
1 69275U 26118J   26165.21223081  .00024202  00000+0  67439-3 0  9997
2 69275  51.8631  67.7412 0008370 166.7510 193.3698 15.36621669  3520
KUIPER-00590            
1 69276U 26118K   26165.20079534  .00022811  00000+0  61211-3 0  9995
2 69276  51.8693  67.6674 0004344 149.3430 210.7812 15.37850144  3528
KUIPER-00592            
1 69277U 26118L   26165.19863947  .00024609  00000+0  65433-3 0  9990
2 69277  51.8717  67.6535 0003541 126.7830 233.3483 15.38091233  3525
KUIPER-00593            
1 69278U 26118M   26165.19925575  .00022106  00000+0  59108-3 0  9999
2 69278  51.8721  67.6558 0003938 144.4871 215.6379 15.37983079  3588
KUIPER-00594            
1 69279U 26118N   26165.19233897  .00029445  00000+0  76776-3 0  9992
2 69279  51.8724  67.6092 0001041  85.2614 274.8492 15.38596484  3523
